[{"OBJECT_NAME":"AQUA","OBJECT_ID":"2002-022A","EPOCH":"2026-03-09T23:03:04.467168","MEAN_MOTION":14.6197796,"ECCENTRICITY":5.597e-5,"INCLINATION":98.4175,"RA_OF_ASC_NODE":36.3303,"ARG_OF_PERICENTER":81.6608,"MEAN_ANOMALY":350.7427,"EPHEMERIS_TYPE":0,"CLASSIFICATION_TYPE":"U","NORAD_CAT_ID":27424,"ELEMENT_SET_NO":999,"REV_AT_EPOCH":26877,"BSTAR":0.00028652441,"MEAN_MOTION_DOT":1.387e-5,"MEAN_MOTION_DDOT":0},{"OBJECT_NAME":"CZ-4B DEB","OBJECT_ID":"1999-057FY","EPOCH":"2026-03-09T16:50:39.153984","MEAN_MOTION":14.63827879,"ECCENTRICITY":0.00594794,"INCLINATION":98.3957,"RA_OF_ASC_NODE":132.4951,"ARG_OF_PERICENTER":198.4613,"MEAN_ANOMALY":285.426,"EPHEMERIS_TYPE":0,"CLASSIFICATION_TYPE":"U","NORAD_CAT_ID":26286,"ELEMENT_SET_NO":999,"REV_AT_EPOCH":37265,"BSTAR":0.00071236524,"MEAN_MOTION_DOT":3.764e-5,"MEAN_MOTION_DDOT":0}]
